[{"OBJECT_NAME":"HAWK-11C","OBJECT_ID":"2024-247E","EPOCH":"2026-03-09T12:17:35.407968","MEAN_MOTION":15.2884802,"ECCENTRICITY":0.00059001,"INCLINATION":45.0045,"RA_OF_ASC_NODE":114.8762,"ARG_OF_PERICENTER":329.704,"MEAN_ANOMALY":30.3502,"EPHEMERIS_TYPE":0,"CLASSIFICATION_TYPE":"U","NORAD_CAT_ID":62381,"ELEMENT_SET_NO":999,"REV_AT_EPOCH":6774,"BSTAR":0.00033290115,"MEAN_MOTION_DOT":9.223e-5,"MEAN_MOTION_DDOT":0},{"OBJECT_NAME":"STARLINK-35200","OBJECT_ID":"2025-223B","EPOCH":"2026-03-09T22:35:50.501472","MEAN_MOTION":15.30206285,"ECCENTRICITY":9.463e-5,"INCLINATION":53.1606,"RA_OF_ASC_NODE":293.0452,"ARG_OF_PERICENTER":88.8161,"MEAN_ANOMALY":271.2948,"EPHEMERIS_TYPE":0,"CLASSIFICATION_TYPE":"U","NORAD_CAT_ID":65855,"ELEMENT_SET_NO":999,"REV_AT_EPOCH":2424,"BSTAR":0.001109,"MEAN_MOTION_DOT":0.00032637,"MEAN_MOTION_DDOT":0}]
